{"type": "FeatureCollection", "features": [ {"type": "Feature", "properties": {"norad_id": 40534, "name": "GPS BIIF-9  (PRN 26)", "group": "gps-ops", "lat": -50.91136317211592, "lon": 144.7356453810309, "alt_km": 20302.684252094507, "timestamp": "2025-12-14T11:29:50.319272+00:00", "meta": {"OBJECT_NAME": "GPS BIIF-9  (PRN 26)", "OBJECT_ID": "2015-013A", "EPOCH": "2025-12-13T14:04:23.865312", "MEAN_MOTION": 2.00562579, "ECCENTRICITY": 0.01070971, "INCLINATION": 53.1976, "RA_OF_ASC_NODE": 211.8551, "ARG_OF_PERICENTER": 38.5041, "MEAN_ANOMALY": 322.3346, "EPHEMERIS_TYPE": 0, "CLASSIFICATION_TYPE": "U", "NORAD_CAT_ID": 40534, "ELEMENT_SET_NO": 999, "REV_AT_EPOCH": 7810, "BSTAR": 0, "MEAN_MOTION_DOT": 4.8e-07, "MEAN_MOTION_DDOT": 0}, "tle": {"line1": "1 40534U 15013A   25347.58638733  .00000048  00000+0  00000+0 0  9990", "line2": "2 40534  53.1976 211.8551 0107097  38.5041 322.3346  2.00562579 78102"}}, "geometry": {"type": "Point", "coordinates": [144.7356453810309, -50.91136317211592]}}, {"type": "Feature", "properties": {"norad_id": 40730, "name": "GPS BIIF-10 (PRN 08)", "group": "gps-ops", "lat": 8.500983636552974, "lon": 88.48644677173371, "alt_km": 20414.322062074203, "timestamp": "2025-12-14T11:29:50.319283+00:00", "meta": {"OBJECT_NAME": "GPS BIIF-10 (PRN 08)", "OBJECT_ID": "2015-033A", "EPOCH": "2025-12-13T05:58:43.034880", "MEAN_MOTION": 2.00565584, "ECCENTRICITY": 0.01109992, "INCLINATION": 54.1301, "RA_OF_ASC_NODE": 274.7519, "ARG_OF_PERICENTER": 26.8185, "MEAN_ANOMALY": 333.7648, "EPHEMERIS_TYPE": 0, "CLASSIFICATION_TYPE": "U", "NORAD_CAT_ID": 40730, "ELEMENT_SET_NO": 999, "REV_AT_EPOCH": 7626, "BSTAR": 0, "MEAN_MOTION_DOT": -7.5e-07, "MEAN_MOTION_DDOT": 0}, "tle": {"line1": "1 40730U 15033A   25347.24910920 -.00000075  00000+0  00000+0 0  9995", "line2": "2 40730  54.1301 274.7519 0110999  26.8185 333.7648  2.00565584 76264"}}, "geometry": {"type": "Point", "coordinates": [88.48644677173371, 8.500983636552974]}}, {"type": "Feature", "properties": {"norad_id": 41019, "name": "GPS BIIF-11 (PRN 10)", "group": "gps-ops", "lat": 44.560931918366165, "lon": 177.90076172982464, "alt_km": 20259.497272581437, "timestamp": "2025-12-14T11:29:50.319294+00:00", "meta": {"OBJECT_NAME": "GPS BIIF-11 (PRN 10)", "OBJECT_ID": "2015-062A", "EPOCH": "2025-12-12T19:26:17.014560", "MEAN_MOTION": 2.00567164, "ECCENTRICITY": 0.01108438, "INCLINATION": 56.8322, "RA_OF_ASC_NODE": 37.9995, "ARG_OF_PERICENTER": 229.9503, "MEAN_ANOMALY": 129.1214, "EPHEMERIS_TYPE": 0, "CLASSIFICATION_TYPE": "U", "NORAD_CAT_ID": 41019, "ELEMENT_SET_NO": 999, "REV_AT_EPOCH": 7409, "BSTAR": 0, "MEAN_MOTION_DOT": -9.6e-07, "MEAN_MOTION_DDOT": 0}, "tle": {"line1": "1 41019U 15062A   25346.80991915 -.00000096  00000+0  00000+0 0  9995", "line2": "2 41019  56.8322  37.9995 0110843 229.9503 129.1214  2.00567164 74093"}}, "geometry": {"type": "Point", "coordinates": [177.90076172982464, 44.560931918366165]}}, {"type": "Feature", "properties": {"norad_id": 41328, "name": "GPS BIIF-12 (PRN 32)", "group": "gps-ops", "lat": 48.07767224370122, "lon": 146.93056062255062, "alt_km": 20421.278538260904, "timestamp": "2025-12-14T11:29:50.319305+00:00", "meta": {"OBJECT_NAME": "GPS BIIF-12 (PRN 32)", "OBJECT_ID": "2016-007A", "EPOCH": "2025-12-13T09:23:04.524576", "MEAN_MOTION": 2.00560713, "ECCENTRICITY": 0.00921862, "INCLINATION": 55.4066, "RA_OF_ASC_NODE": 96.8311, "ARG_OF_PERICENTER": 243.5856, "MEAN_ANOMALY": 115.4531, "EPHEMERIS_TYPE": 0, "CLASSIFICATION_TYPE": "U", "NORAD_CAT_ID": 41328, "ELEMENT_SET_NO": 999, "REV_AT_EPOCH": 7211, "BSTAR": 0, "MEAN_MOTION_DOT": -1.9e-07, "MEAN_MOTION_DDOT": 0}, "tle": {"line1": "1 41328U 16007A   25347.39102459 -.00000019  00000+0  00000+0 0  9995", "line2": "2 41328  55.4066  96.8311 0092186 243.5856 115.4531  2.00560713 72118"}}, "geometry": {"type": "Point", "coordinates": [146.93056062255062, 48.07767224370122]}}, {"type": "Feature", "properties": {"norad_id": 43873, "name": "GPS BIII-1  (PRN 04)", "group": "gps-ops", "lat": -32.31689423925767, "lon": 73.77957230275324, "alt_km": 20243.37838385613, "timestamp": "2025-12-14T11:29:50.319316+00:00", "meta": {"OBJECT_NAME": "GPS BIII-1  (PRN 04)", "OBJECT_ID": "2018-109A", "EPOCH": "2025-12-12T07:06:10.304640", "MEAN_MOTION": 2.00553613, "ECCENTRICITY": 0.0037314, "INCLINATION": 55.5671, "RA_OF_ASC_NODE": 99.5642, "ARG_OF_PERICENTER": 194.9554, "MEAN_ANOMALY": 348.038, "EPHEMERIS_TYPE": 0, "CLASSIFICATION_TYPE": "U", "NORAD_CAT_ID": 43873, "ELEMENT_SET_NO": 999, "REV_AT_EPOCH": 5132, "BSTAR": 0, "MEAN_MOTION_DOT": -2e-08, "MEAN_MOTION_DDOT": 0}, "tle": {"line1": "1 43873U 18109A   25346.29595260 -.00000002  00000+0  00000+0 0  9993", "line2": "2 43873  55.5671  99.5642 0037314 194.9554 348.0380  2.00553613 51328"}}, "geometry": {"type": "Point", "coordinates": [73.77957230275324, -32.31689423925767]}}, {"type": "Feature", "properties": {"norad_id": 44506, "name": "GPS BIII-2  (PRN 18)", "group": "gps-ops", "lat": -29.438703428736513, "lon": -178.88458851600512, "alt_km": 20039.93013162208, "timestamp": "2025-12-14T11:29:50.319328+00:00", "meta": {"OBJECT_NAME": "GPS BIII-2  (PRN 18)", "OBJECT_ID": "2019-056A", "EPOCH": "2025-12-11T10:12:28.532736", "MEAN_MOTION": 2.00566237, "ECCENTRICITY": 0.00577517, "INCLINATION": 55.7218, "RA_OF_ASC_NODE": 338.6041, "ARG_OF_PERICENTER": 198.4885, "MEAN_ANOMALY": 332.8185, "EPHEMERIS_TYPE": 0, "CLASSIFICATION_TYPE": "U", "NORAD_CAT_ID": 44506, "ELEMENT_SET_NO": 999, "REV_AT_EPOCH": 4630, "BSTAR": 0, "MEAN_MOTION_DOT": -8.7e-07, "MEAN_MOTION_DDOT": 0}, "tle": {"line1": "1 44506U 19056A   25345.42533024 -.00000087  00000+0  00000+0 0  9996", "line2": "2 44506  55.7218 338.6041 0057751 198.4885 332.8185  2.00566237 46306"}}, "geometry": {"type": "Point", "coordinates": [-178.88458851600512, -29.438703428736513]}}, {"type": "Feature", "properties": {"norad_id": 45854, "name": "GPS BIII-3  (PRN 23)", "group": "gps-ops", "lat": 16.716093672372477, "lon": -155.3082491216939, "alt_km": 20063.809848612607, "timestamp": "2025-12-14T11:29:50.319339+00:00", "meta": {"OBJECT_NAME": "GPS BIII-3  (PRN 23)", "OBJECT_ID": "2020-041A", "EPOCH": "2025-12-11T05:23:02.925024", "MEAN_MOTION": 2.00561914, "ECCENTRICITY": 0.006046, "INCLINATION": 56.5461, "RA_OF_ASC_NODE": 36.2442, "ARG_OF_PERICENTER": 203.3747, "MEAN_ANOMALY": 126.9066, "EPHEMERIS_TYPE": 0, "CLASSIFICATION_TYPE": "U", "NORAD_CAT_ID": 45854, "ELEMENT_SET_NO": 999, "REV_AT_EPOCH": 4026, "BSTAR": 0, "MEAN_MOTION_DOT": -9.4e-07, "MEAN_MOTION_DDOT": 0}, "tle": {"line1": "1 45854U 20041A   25345.22433941 -.00000094  00000+0  00000+0 0  9992", "line2": "2 45854  56.5461  36.2442 0060460 203.3747 126.9066  2.00561914 40268"}}, "geometry": {"type": "Point", "coordinates": [-155.3082491216939, 16.716093672372477]}}, {"type": "Feature", "properties": {"norad_id": 46826, "name": "GPS BIII-4  (PRN 14)", "group": "gps-ops", "lat": 37.9120230409743, "lon": 3.8406247749485445, "alt_km": 20125.667824415512, "timestamp": "2025-12-14T11:29:50.319350+00:00", "meta": {"OBJECT_NAME": "GPS BIII-4  (PRN 14)", "OBJECT_ID": "2020-078A", "EPOCH": "2025-12-13T00:53:29.004000", "MEAN_MOTION": 2.00566814, "ECCENTRICITY": 0.00646719, "INCLINATION": 54.015, "RA_OF_ASC_NODE": 218.3288, "ARG_OF_PERICENTER": 203.3817, "MEAN_ANOMALY": 326.8, "EPHEMERIS_TYPE": 0, "CLASSIFICATION_TYPE": "U", "NORAD_CAT_ID": 46826, "ELEMENT_SET_NO": 999, "REV_AT_EPOCH": 3777, "BSTAR": 0, "MEAN_MOTION_DOT": 2.7e-07, "MEAN_MOTION_DDOT": 0}, "tle": {"line1": "1 46826U 20078A   25347.03714125  .00000027  00000+0  00000+0 0  9994", "line2": "2 46826  54.0150 218.3288 0064671 203.3817 326.8000  2.00566814 37778"}}, "geometry": {"type": "Point", "coordinates": [3.8406247749485445, 37.9120230409743]}}, {"type": "Feature", "properties": {"norad_id": 48859, "name": "GPS BIII-5  (PRN 11)", "group": "gps-ops", "lat": -34.1744953915988, "lon": -48.231209328194254, "alt_km": 20179.444983016387, "timestamp": "2025-12-14T11:29:50.319361+00:00", "meta": {"OBJECT_NAME": "GPS BIII-5  (PRN 11)", "OBJECT_ID": "2021-054A", "EPOCH": "2025-12-08T04:14:32.423424", "MEAN_MOTION": 2.00553627, "ECCENTRICITY": 0.0024678, "INCLINATION": 55.2581, "RA_OF_ASC_NODE": 340.1367, "ARG_OF_PERICENTER": 233.3994, "MEAN_ANOMALY": 212.8593, "EPHEMERIS_TYPE": 0, "CLASSIFICATION_TYPE": "U", "NORAD_CAT_ID": 48859, "ELEMENT_SET_NO": 999, "REV_AT_EPOCH": 3292, "BSTAR": 0, "MEAN_MOTION_DOT": -8.6e-07, "MEAN_MOTION_DDOT": 0}, "tle": {"line1": "1 48859U 21054A   25342.17676416 -.00000086  00000+0  00000+0 0  9993", "line2": "2 48859  55.2581 340.1367 0024678 233.3994 212.8593  2.00553627 32922"}}, "geometry": {"type": "Point", "coordinates": [-48.231209328194254, -34.1744953915988]}}, {"type": "Feature", "properties": {"norad_id": 55268, "name": "GPS BIII-6  (PRN 28)", "group": "gps-ops", "lat": -0.8156873940388528, "lon": 155.19980978607754, "alt_km": 20173.45774044137, "timestamp": "2025-12-14T11:29:50.319383+00:00", "meta": {"OBJECT_NAME": "GPS BIII-6  (PRN 28)", "OBJECT_ID": "2023-009A", "EPOCH": "2025-12-13T12:37:03.021024", "MEAN_MOTION": 2.00555696, "ECCENTRICITY": 0.00037118, "INCLINATION": 55.1051, "RA_OF_ASC_NODE": 155.8142, "ARG_OF_PERICENTER": 357.4368, "MEAN_ANOMALY": 33.2544, "EPHEMERIS_TYPE": 0, "CLASSIFICATION_TYPE": "U", "NORAD_CAT_ID": 55268, "ELEMENT_SET_NO": 999, "REV_AT_EPOCH": 2152, "BSTAR": 0, "MEAN_MOTION_DOT": 1e-06, "MEAN_MOTION_DDOT": 0}, "tle": {"line1": "1 55268U 23009A   25347.52572941  .00000100  00000+0  00000+0 0  9995", "line2": "2 55268  55.1051 155.8142 0003711 357.4368  33.2544  2.00555696 21528"}}, "geometry": {"type": "Point", "coordinates": [155.19980978607754, -0.8156873940388528]}}]}